STARLINK-34228          
1 64171U 25113B   26068.32418196  .00023985  00000+0  81915-3 0  9990
2 64171  53.1595  92.5130 0001043  94.1123 265.9997 15.30207314 45010
2025-313BC              
1 67298U 25313BC  26068.18968176  .00075331  00000+0  26410-2 0  9997
2 67298  97.3985 144.8110 0008478 328.9209  31.1528 15.29126358  7890
